SAUDISAT 1C             
1 27607U 02058C   22319.38873325  .00000766  00000+0  12461-3 0  9998
2 27607  64.5543 199.9334 0081306 265.7523  93.4285 14.76415154 70654
SAUDISAT 2              
1 28371U 04025F   22319.48324715  .00000466  00000+0  11953-3 0  9990
2 28371  98.3996 276.6815 0025795   2.9084 357.2257 14.54651303975243
SAUDISAT 3              
1 31118U 07012B   22319.41507707  .00000307  00000+0  59970-4 0  9995
2 31118  97.9872 262.9326 0016495  76.3055 283.9986 14.69416467835277
PISAT                   
1 41784U 16059B   22319.59826513  .00000675  00000+0  13631-3 0  9995
2 41784  97.8983 356.9434 0032709  53.2367 307.1831 14.64104633327806
FLYING LAPTOP           
1 42831U 17042G   22319.43613989  .00000925  00000+0  95976-4 0  9997
2 42831  97.4033 165.0044 0012687 218.0924 141.9405 14.92115947290600
SALSAT                  
1 46495U 20068K   22319.37158941  .00002728  00000+0  19454-3 0  9993
2 46495  97.7456 260.8843 0017887 122.0080 238.2887 15.05303280116882
